{
"type": "FeatureCollection",
"name": "SL_FAR_FIRE_STN",
"crs": { "type": "name", "properties": { "name": "urn:ogc:def:crs:OGC:1.3:CRS84" } },
"features": [
{ "type": "Feature", "properties": { "OBJECTID": 1, "FIRE_STN_NAME": "EPPING", "FIRE_STN_CODE": "EPG", "FIRE_STN_CLASS": "COMMUNITY STATION" }, "geometry": { "type": "Point", "coordinates": [ 18.542860512000061, -33.927541167999948 ] } },
{ "type": "Feature", "properties": { "OBJECTID": 2, "FIRE_STN_NAME": "MITCHELLS PLAIN", "FIRE_STN_CODE": "MPN", "FIRE_STN_CLASS": "DIVISIONAL HQ" }, "geometry": { "type": "Point", "coordinates": [ 18.59314138700006, -34.043479794999939 ] } },
{ "type": "Feature", "properties": { "OBJECTID": 3, "FIRE_STN_NAME": "SEA POINT", "FIRE_STN_CODE": "SPT", "FIRE_STN_CLASS": "COMMUNITY STATION" }, "geometry": { "type": "Point", "coordinates": [ 18.386876154000049, -33.919089844999974 ] } },
{ "type": "Feature", "properties": { "OBJECTID": 4, "FIRE_STN_NAME": "ROELAND STREET", "FIRE_STN_CODE": "RDS", "FIRE_STN_CLASS": "DISTRICT HQ - WEST" }, "geometry": { "type": "Point", "coordinates": [ 18.425124761000063, -33.933298448999949 ] } },
{ "type": "Feature", "properties": { "OBJECTID": 5, "FIRE_STN_NAME": "SALT RIVER", "FIRE_STN_CODE": "SLR", "FIRE_STN_CLASS": "COMMUNITY STATION" }, "geometry": { "type": "Point", "coordinates": [ 18.461388098000043, -33.935331365999957 ] } },
{ "type": "Feature", "properties": { "OBJECTID": 6, "FIRE_STN_NAME": "WYNBERG", "FIRE_STN_CODE": "WBG", "FIRE_STN_CLASS": "COMMUNITY STATION" }, "geometry": { "type": "Point", "coordinates": [ 18.478464812000027, -34.003786659999946 ] } },
{ "type": "Feature", "properties": { "OBJECTID": 7, "FIRE_STN_NAME": "LAKESIDE", "FIRE_STN_CODE": "LKE", "FIRE_STN_CLASS": "DIVISIONAL HQ" }, "geometry": { "type": "Point", "coordinates": [ 18.457725427000071, -34.086981110999943 ] } },
{ "type": "Feature", "properties": { "OBJECTID": 8, "FIRE_STN_NAME": "OTTERY", "FIRE_STN_CODE": "OTY", "FIRE_STN_CLASS": "DIVISIONAL HQ" }, "geometry": { "type": "Point", "coordinates": [ 18.521429139000077, -34.016466289999983 ] } },
{ "type": "Feature", "properties": { "OBJECTID": 9, "FIRE_STN_NAME": "CONSTANTIA", "FIRE_STN_CODE": "CTA", "FIRE_STN_CLASS": "COMMUNITY STATION" }, "geometry": { "type": "Point", "coordinates": [ 18.442400316000032, -34.021056212999952 ] } },
{ "type": "Feature", "properties": { "OBJECTID": 10, "FIRE_STN_NAME": "BELLVILLE", "FIRE_STN_CODE": "BVL", "FIRE_STN_CLASS": "DISTRICT HQ - NORTH" }, "geometry": { "type": "Point", "coordinates": [ 18.638147776000039, -33.905532486999959 ] } },
{ "type": "Feature", "properties": { "OBJECTID": 11, "FIRE_STN_NAME": "MILNERTON", "FIRE_STN_CODE": "MIL", "FIRE_STN_CLASS": "DIVISIONAL HQ" }, "geometry": { "type": "Point", "coordinates": [ 18.517433115000074, -33.852411350999944 ] } },
{ "type": "Feature", "properties": { "OBJECTID": 12, "FIRE_STN_NAME": "GOODWOOD", "FIRE_STN_CODE": "GWD", "FIRE_STN_CLASS": "FIRE SERVICE HEAD OFFICE" }, "geometry": { "type": "Point", "coordinates": [ 18.563169372000061, -33.895138580999969 ] } },
{ "type": "Feature", "properties": { "OBJECTID": 13, "FIRE_STN_NAME": "DURBANVILLE", "FIRE_STN_CODE": "DBV", "FIRE_STN_CLASS": "COMMUNITY STATION" }, "geometry": { "type": "Point", "coordinates": [ 18.652284205000058, -33.833871289999934 ] } },
{ "type": "Feature", "properties": { "OBJECTID": 14, "FIRE_STN_NAME": "KUILSRIVER", "FIRE_STN_CODE": "KLR", "FIRE_STN_CLASS": "COMMUNITY STATION" }, "geometry": { "type": "Point", "coordinates": [ 18.682386182000073, -33.936956791999933 ] } },
{ "type": "Feature", "properties": { "OBJECTID": 15, "FIRE_STN_NAME": "KRAAIFONTEIN", "FIRE_STN_CODE": "KFN", "FIRE_STN_CLASS": "COMMUNITY STATION" }, "geometry": { "type": "Point", "coordinates": [ 18.704889207000065, -33.841899031999958 ] } },
{ "type": "Feature", "properties": { "OBJECTID": 16, "FIRE_STN_NAME": "SOMERSET WEST", "FIRE_STN_CODE": "SWT", "FIRE_STN_CLASS": "COMMUNITY STATION" }, "geometry": { "type": "Point", "coordinates": [ 18.843268255000055, -34.085944728999948 ] } },
{ "type": "Feature", "properties": { "OBJECTID": 17, "FIRE_STN_NAME": "FISH HOEK", "FIRE_STN_CODE": "FHK", "FIRE_STN_CLASS": "COMMUNITY STATION" }, "geometry": { "type": "Point", "coordinates": [ 18.425815796000052, -34.136748643999965 ] } },
{ "type": "Feature", "properties": { "OBJECTID": 18, "FIRE_STN_NAME": "STRAND", "FIRE_STN_CODE": "SND", "FIRE_STN_CLASS": "DISTRICT HQ - EAST" }, "geometry": { "type": "Point", "coordinates": [ 18.844929552000053, -34.117161833999944 ] } },
{ "type": "Feature", "properties": { "OBJECTID": 19, "FIRE_STN_NAME": "SIMONSTOWN", "FIRE_STN_CODE": "STN", "FIRE_STN_CLASS": "COMMUNITY STATION" }, "geometry": { "type": "Point", "coordinates": [ 18.424526785000069, -34.183296501999962 ] } },
{ "type": "Feature", "properties": { "OBJECTID": 20, "FIRE_STN_NAME": "ATLANTIS", "FIRE_STN_CODE": "ATS", "FIRE_STN_CLASS": "COMMUNITY STATION" }, "geometry": { "type": "Point", "coordinates": [ 18.485241235000046, -33.585023565999961 ] } },
{ "type": "Feature", "properties": { "OBJECTID": 21, "FIRE_STN_NAME": "BROOKLYN", "FIRE_STN_CODE": "BKN", "FIRE_STN_CLASS": "COMMUNITY STATION" }, "geometry": { "type": "Point", "coordinates": [ 18.480540377000068, -33.915965177999965 ] } },
{ "type": "Feature", "properties": { "OBJECTID": 22, "FIRE_STN_NAME": "GUGULETU", "FIRE_STN_CODE": "GTU", "FIRE_STN_CLASS": "COMMUNITY STATION" }, "geometry": { "type": "Point", "coordinates": [ 18.565895928000032, -34.001130512999964 ] } },
{ "type": "Feature", "properties": { "OBJECTID": 23, "FIRE_STN_NAME": "MFULENI", "FIRE_STN_CODE": "MFU", "FIRE_STN_CLASS": "COMMUNITY STATION" }, "geometry": { "type": "Point", "coordinates": [ 18.687532950000048, -34.00266133699995 ] } },
{ "type": "Feature", "properties": { "OBJECTID": 24, "FIRE_STN_NAME": "KHAYELITSHA", "FIRE_STN_CODE": "KHA", "FIRE_STN_CLASS": "COMMUNITY STATION" }, "geometry": { "type": "Point", "coordinates": [ 18.681530138000028, -34.047205109999936 ] } },
{ "type": "Feature", "properties": { "OBJECTID": 25, "FIRE_STN_NAME": "BELHAR", "FIRE_STN_CODE": "BHR", "FIRE_STN_CLASS": "DIVISIONAL HQ" }, "geometry": { "type": "Point", "coordinates": [ 18.635391178000077, -33.951888775999976 ] } },
{ "type": "Feature", "properties": { "OBJECTID": 26, "FIRE_STN_NAME": "LANSDOWNE ROAD", "FIRE_STN_CODE": "LSD", "FIRE_STN_CLASS": "COMMUNITY STATION" }, "geometry": { "type": "Point", "coordinates": [ 18.653292979000071, -34.01558952299996 ] } },
{ "type": "Feature", "properties": { "OBJECTID": 27, "FIRE_STN_NAME": "MACASSAR", "FIRE_STN_CODE": "MCR", "FIRE_STN_CLASS": "COMMUNITY STATION" }, "geometry": { "type": "Point", "coordinates": [ 18.763858268000035, -34.062109063999969 ] } },
{ "type": "Feature", "properties": { "OBJECTID": 28, "FIRE_STN_NAME": "HOUT BAY", "FIRE_STN_CODE": "HTB", "FIRE_STN_CLASS": "COMMUNITY STATION" }, "geometry": { "type": "Point", "coordinates": [ 18.357044329000075, -34.031285479999951 ] } },
{ "type": "Feature", "properties": { "OBJECTID": 29, "FIRE_STN_NAME": "BRACKENFELL", "FIRE_STN_CODE": "BFL", "FIRE_STN_CLASS": "COMMUNITY STATION" }, "geometry": { "type": "Point", "coordinates": [ 18.707529091000026, -33.878024130999961 ] } },
{ "type": "Feature", "properties": { "OBJECTID": 30, "FIRE_STN_NAME": "MELKBOSSTRAND", "FIRE_STN_CODE": "MKS", "FIRE_STN_CLASS": "COMMUNITY STATION" }, "geometry": { "type": "Point", "coordinates": [ 18.4451, -33.7322 ] } },
{ "type": "Feature", "properties": { "OBJECTID": 31, "FIRE_STN_NAME": "KOMMETJIE ROAD ", "FIRE_STN_CODE": "MSP", "FIRE_STN_CLASS": "COMMUNITY STATION" }, "geometry": { "type": "Point", "coordinates": [ 18.378105848000075, -34.134363084999961 ] } },
{ "type": "Feature", "properties": { "OBJECTID": 32, "FIRE_STN_NAME": "SIR LOWRYS PASS", "FIRE_STN_CODE": "SLP", "FIRE_STN_CLASS": "COMMUNITY STATION" }, "geometry": { "type": "Point", "coordinates": [ 18.878343724000047, -34.106586120999964 ] } }
]
}
